{"type":"FeatureCollection","name":"west_wildwood_road_centerlines","metadata":{"source":"NJOGIS NG911 Road Centerlines (Tran_road)","url":"https://services2.arcgis.com/XVOqAjTOJ5P6ngMu/arcgis/rest/services/Tran_road/FeatureServer/0","query_url":"https://services2.arcgis.com/XVOqAjTOJ5P6ngMu/arcgis/rest/services/Tran_road/FeatureServer/0/query","retrieved_at_utc":"2026-09-04T20:06:23.369312+00:00","source_last_edit_date":1785341586960,"out_sr":4326,"query_envelope_wgs84":[-74.8308579,38.9956573,-74.8129656,39.0071896],"spatial_relationship":"esriSpatialRelIntersects","boundary_file":"west_wildwood_boundary.geojson","boundary_sha256":"03b4355c08aa4a502ceb7a90ce613e6440ada651cc9714f93ece81f922b1bb6a","fields":["OBJECTID","PRIMENAME","ELEVTYP_F","ELEVTYP_T"],"feature_count":138,"complete_objectid_inventory_verified":true,"municipal_clipping":"Envelope selection only; clip against the actual municipal boundary in the application."},"features":[{"type":"Feature","id":5712,"properties":{"OBJECTID":5712,"PRIMENAME":"West Glenwood Avenue","ELEVTYP_F":0,"ELEVTYP_T":0},"geometry":{"type":"LineString","coordinates":[[-74.8251602327213,39.002186073718],[-74.8246249142874,39.0017919714799]]}},{"type":"Feature","id":7188,"properties":{"OBJECTID":7188,"PRIMENAME":"West Poplar Avenue","ELEVTYP_F":0,"ELEVTYP_T":0},"geometry":{"type":"LineString","coordinates":[[-74.8140945618559,38.9957810007271],[-74.8134190501674,38.995296200553],[-74.8124961540585,38.9946441779098]]}},{"type":"Feature","id":8718,"properties":{"OBJECTID":8718,"PRIMENAME":"Park Boulevard","ELEVTYP_F":0,"ELEVTYP_T":0},"geometry":{"type":"LineString","coordinates":[[-74.8146453563862,38.9953072057485],[-74.8142904527144,38.9956152287655],[-74.8140945618559,38.9957810007271]]}},{"type":"Feature","id":9928,"properties":{"OBJECTID":9928,"PRIMENAME":"Arion Avenue","ELEVTYP_F":0,"ELEVTYP_T":0},"geometry":{"type":"LineString","coordinates":[[-74.8221782001165,38.9983716507472],[-74.8216704666643,38.9987909123438]]}},{"type":"Feature","id":13387,"properties":{"OBJECTID":13387,"PRIMENAME":"Maple Avenue","ELEVTYP_F":0,"ELEVTYP_T":0},"geometry":{"type":"LineString","coordinates":[[-74.8180339991003,38.9959954334734],[-74.818217518432,38.9961252781025]]}},{"type":"Feature","id":15821,"properties":{"OBJECTID":15821,"PRIMENAME":"West 26th Avenue","ELEVTYP_F":0,"ELEVTYP_T":0},"geometry":{"type":"LineString","coordinates":[[-74.8166237867417,38.9991043698081],[-74.816477849834,38.9989970189541]]}},{"type":"Feature","id":23146,"properties":{"OBJECTID":23146,"PRIMENAME":"West Maple Avenue","ELEVTYP_F":0,"ELEVTYP_T":0},"geometry":{"type":"LineString","coordinates":[[-74.8246150203312,39.0009590509262],[-74.8255710039772,39.0016631100839],[-74.8261603526618,39.0020976669185]]}},{"type":"Feature","id":24557,"properties":{"OBJECTID":24557,"PRIMENAME":"Lake Avenue","ELEVTYP_F":0,"ELEVTYP_T":0},"geometry":{"type":"LineString","coordinates":[[-74.8186122217276,38.9955153390092],[-74.8180976525536,38.9959403703559],[-74.8180339991003,38.9959954334734]]}},{"type":"Feature","id":49332,"properties":{"OBJECTID":49332,"PRIMENAME":"West Glenwood Avenue","ELEVTYP_F":0,"ELEVTYP_T":0},"geometry":{"type":"LineString","coordinates":[[-74.8211355216824,38.9992323510771],[-74.8208115602887,38.9989953703976],[-74.8197398543643,38.9982051782162],[-74.8189981830339,38.9976621051925],[-74.8187794144828,38.9975040755515],[-74.818571561671,38.9973394817316]]}},{"type":"Feature","id":49961,"properties":{"OBJECTID":49961,"PRIMENAME":"West 26th Avenue","ELEVTYP_F":0,"ELEVTYP_T":0},"geometry":{"type":"LineString","coordinates":[[-74.816477849834,38.9989970189541],[-74.816367876514,38.9989161233362],[-74.8161738489815,38.9987816621954],[-74.8155383530653,38.998341257076],[-74.8155340834037,38.9983382984777],[-74.8154038767931,38.9982480624567]]}},{"type":"Feature","id":50743,"properties":{"OBJECTID":50743,"PRIMENAME":"Hudson Avenue","ELEVTYP_F":0,"ELEVTYP_T":0},"geometry":{"type":"LineString","coordinates":[[-74.8147863687647,38.9971304456081],[-74.8150437460748,38.9969115114386],[-74.8153337715607,38.9966600330667]]}},{"type":"Feature","id":51043,"properties":{"OBJECTID":51043,"PRIMENAME":"Neptune Avenue","ELEVTYP_F":0,"ELEVTYP_T":0},"geometry":{"type":"LineString","coordinates":[[-74.8240849163098,39.0013967554725],[-74.8234928224676,39.0018855912559],[-74.8232316244848,39.0021059543904],[-74.8231421617013,39.0021887968544]]}},{"type":"Feature","id":51111,"properties":{"OBJECTID":51111,"PRIMENAME":"West Pine Avenue","ELEVTYP_F":0,"ELEVTYP_T":0},"geometry":{"type":"LineString","coordinates":[[-74.8225484159193,38.9986432064327],[-74.8221782001165,38.9983716507472]]}},{"type":"Feature","id":51464,"properties":{"OBJECTID":51464,"PRIMENAME":"West Glenwood Avenue","ELEVTYP_F":0,"ELEVTYP_T":0},"geometry":{"type":"LineString","coordinates":[[-74.8256667464356,39.0025591926158],[-74.8254472966669,39.0023973615036],[-74.8251602327213,39.002186073718]]}},{"type":"Feature","id":52711,"properties":{"OBJECTID":52711,"PRIMENAME":"J Avenue","ELEVTYP_F":0,"ELEVTYP_T":0},"geometry":{"type":"LineString","coordinates":[[-74.8215001690224,39.0011269336856],[-74.8224370497052,39.0003421150415],[-74.8225358653272,39.000257874325]]}},{"type":"Feature","id":54440,"properties":{"OBJECTID":54440,"PRIMENAME":"Glenwood Avenue","ELEVTYP_F":0,"ELEVTYP_T":0},"geometry":{"type":"LineString","coordinates":[[-74.8283538490945,39.0051257964087],[-74.8282006774324,39.004725830412],[-74.8281176257228,39.0045431368326]]}},{"type":"Feature","id":55400,"properties":{"OBJECTID":55400,"PRIMENAME":"M Avenue","ELEVTYP_F":0,"ELEVTYP_T":0},"geometry":{"type":"LineString","coordinates":[[-74.8256494483605,39.0009275569202],[-74.8263658213793,39.0003191649634]]}},{"type":"Feature","id":56387,"properties":{"OBJECTID":56387,"PRIMENAME":"Lake Road","ELEVTYP_F":0,"ELEVTYP_T":0},"geometry":{"type":"LineString","coordinates":[[-74.8207060107426,38.9972529062284],[-74.8208077511672,38.9972712987208],[-74.8210082167718,38.9973106438796],[-74.8212598310656,38.9973465263893],[-74.8216990584126,38.9974118476194],[-74.8221382711206,38.9974737628734],[-74.8221961288393,38.9974834333334],[-74.8222180423707,38.9974892212205],[-74.822242970063,38.9975003275814],[-74.8222961674819,38.9975298911056],[-74.8223096937379,38.9975407271567]]}},{"type":"Feature","id":60438,"properties":{"OBJECTID":60438,"PRIMENAME":"West Wildwood Avenue","ELEVTYP_F":0,"ELEVTYP_T":0},"geometry":{"type":"LineString","coordinates":[[-74.8205028441873,38.9959127549739],[-74.8205309756468,38.9959322831821],[-74.8209081965908,38.9961927326411]]}},{"type":"Feature","id":61779,"properties":{"OBJECTID":61779,"PRIMENAME":"West Pine Avenue","ELEVTYP_F":0,"ELEVTYP_T":0},"geometry":{"type":"LineString","coordinates":[[-74.8261491749951,39.0012956127945],[-74.8258408911897,39.0010682127752],[-74.8256494483605,39.0009275569202]]}},{"type":"Feature","id":61835,"properties":{"OBJECTID":61835,"PRIMENAME":"J Avenue","ELEVTYP_F":0,"ELEVTYP_T":0},"geometry":{"type":"LineString","coordinates":[[-74.8235720439969,38.9993998975629],[-74.8248492055202,38.9983347540648]]}},{"type":"Feature","id":62052,"properties":{"OBJECTID":62052,"PRIMENAME":"Park Boulevard","ELEVTYP_F":0,"ELEVTYP_T":0},"geometry":{"type":"LineString","coordinates":[[-74.8135369046793,38.9962403418529],[-74.8132199597978,38.9965088026594],[-74.8131879789597,38.9965335460352],[-74.8131073474803,38.9965776137599]]}},{"type":"Feature","id":62110,"properties":{"OBJECTID":62110,"PRIMENAME":"H Avenue","ELEVTYP_F":0,"ELEVTYP_T":0},"geometry":{"type":"LineString","coordinates":[[-74.8225572458335,39.0018432870571],[-74.823559712798,39.0010112423331]]}},{"type":"Feature","id":63010,"properties":{"OBJECTID":63010,"PRIMENAME":"West Juniper Avenue","ELEVTYP_F":0,"ELEVTYP_T":0},"geometry":{"type":"LineString","coordinates":[[-74.8119515379727,38.9951087755007],[-74.8130358353909,38.995880279805],[-74.8135369046793,38.9962403418529]]}},{"type":"Feature","id":63301,"properties":{"OBJECTID":63301,"PRIMENAME":"C Avenue","ELEVTYP_F":0,"ELEVTYP_T":0},"geometry":{"type":"LineString","coordinates":[[-74.8258744263979,39.0041287619816],[-74.8267756598033,39.0033769034487]]}},{"type":"Feature","id":64398,"properties":{"OBJECTID":64398,"PRIMENAME":"West Glenwood Avenue","ELEVTYP_F":0,"ELEVTYP_T":0},"geometry":{"type":"LineString","coordinates":[[-74.816432347375,38.9957175711206],[-74.816225567413,38.9955703784292],[-74.8151966143546,38.994836481537]]}},{"type":"Feature","id":66718,"properties":{"OBJECTID":66718,"PRIMENAME":"Arion Avenue","ELEVTYP_F":0,"ELEVTYP_T":0},"geometry":{"type":"LineString","coordinates":[[-74.8206032622189,38.9996701828102],[-74.8201756836096,39.0000219456426],[-74.8200916917165,39.0000931559642]]}},{"type":"Feature","id":67655,"properties":{"OBJECTID":67655,"PRIMENAME":"D Avenue","ELEVTYP_F":0,"ELEVTYP_T":0},"geometry":{"type":"LineString","coordinates":[[-74.8262371773359,39.0029797978875],[-74.8253295985652,39.0037295556838]]}},{"type":"Feature","id":70661,"properties":{"OBJECTID":70661,"PRIMENAME":"E Avenue","ELEVTYP_F":0,"ELEVTYP_T":0},"geometry":{"type":"LineString","coordinates":[[-74.8247934152316,39.0033338919561],[-74.8254934319585,39.0027508959448],[-74.8256145161551,39.0026498137744],[-74.8256327593663,39.0026297457037],[-74.8256522551024,39.0025993223279],[-74.8256667464356,39.0025591926158]]}},{"type":"Feature","id":70901,"properties":{"OBJECTID":70901,"PRIMENAME":"West Glenwood Avenue","ELEVTYP_F":0,"ELEVTYP_T":0},"geometry":{"type":"LineString","coordinates":[[-74.8180218311916,38.9968813250346],[-74.8178696887419,38.9967534576162],[-74.8177873532393,38.9966877369145],[-74.8176157845621,38.9965507918198],[-74.8174874658661,38.9964661851528]]}},{"type":"Feature","id":71638,"properties":{"OBJECTID":71638,"PRIMENAME":"Arion Avenue","ELEVTYP_F":0,"ELEVTYP_T":0},"geometry":{"type":"LineString","coordinates":[[-74.8216704666643,38.9987909123438],[-74.8212203974231,38.999162510478],[-74.8211355216824,38.9992323510771]]}},{"type":"Feature","id":73892,"properties":{"OBJECTID":73892,"PRIMENAME":"G Avenue","ELEVTYP_F":0,"ELEVTYP_T":0},"geometry":{"type":"LineString","coordinates":[[-74.8237220282208,39.002552440344],[-74.8246249142874,39.0017919714799]]}},{"type":"Feature","id":76633,"properties":{"OBJECTID":76633,"PRIMENAME":"J Avenue","ELEVTYP_F":0,"ELEVTYP_T":0},"geometry":{"type":"LineString","coordinates":[[-74.8225358653272,39.000257874325],[-74.8226175747819,39.0001881793068],[-74.8230657157237,38.9998182279656]]}},{"type":"Feature","id":80882,"properties":{"OBJECTID":80882,"PRIMENAME":"West 26th Avenue","ELEVTYP_F":0,"ELEVTYP_T":0},"geometry":{"type":"LineString","coordinates":[[-74.8204290455767,39.001909862236],[-74.8198733861646,39.0014936904398],[-74.8193735762223,39.0011238232713],[-74.8186016635174,39.0005603740288],[-74.8180982298025,39.0001876005268],[-74.8173971455981,38.9996732371681],[-74.8166237867417,38.9991043698081]]}},{"type":"Feature","id":87301,"properties":{"OBJECTID":87301,"PRIMENAME":"Venice Avenue","ELEVTYP_F":0,"ELEVTYP_T":0},"geometry":{"type":"LineString","coordinates":[[-74.8181725790033,38.9978842457393],[-74.8181732801411,38.9978835573698],[-74.8182351437663,38.9978136168175],[-74.818393494795,38.9975948363434],[-74.818571561671,38.9973394817316]]}},{"type":"Feature","id":87638,"properties":{"OBJECTID":87638,"PRIMENAME":"West Poplar Avenue","ELEVTYP_F":0,"ELEVTYP_T":0},"geometry":{"type":"LineString","coordinates":[[-74.8253295985652,39.0037295556838],[-74.8247934152316,39.0033338919561]]}},{"type":"Feature","id":90562,"properties":{"OBJECTID":90562,"PRIMENAME":"Lake Road","ELEVTYP_F":0,"ELEVTYP_T":0},"geometry":{"type":"LineString","coordinates":[[-74.8205028441873,38.9959127549739],[-74.8203149748423,38.9959270829154],[-74.82015488451,38.9959217009216],[-74.8194350487,38.9958792739253]]}},{"type":"Feature","id":91959,"properties":{"OBJECTID":91959,"PRIMENAME":"Lake Avenue","ELEVTYP_F":0,"ELEVTYP_T":0},"geometry":{"type":"LineString","coordinates":[[-74.8163915709369,38.9974096937397],[-74.8160423542037,38.9977072178095],[-74.8158425346634,38.9978764626042]]}},{"type":"Feature","id":92106,"properties":{"OBJECTID":92106,"PRIMENAME":"F Avenue","ELEVTYP_F":0,"ELEVTYP_T":0},"geometry":{"type":"LineString","coordinates":[[-74.8251602327213,39.002186073718],[-74.8242544869167,39.0029367784652]]}},{"type":"Feature","id":93065,"properties":{"OBJECTID":93065,"PRIMENAME":"West Pine Avenue","ELEVTYP_F":0,"ELEVTYP_T":0},"geometry":{"type":"LineString","coordinates":[[-74.8245968801559,39.0001541871338],[-74.8240846735564,38.9997778117885]]}},{"type":"Feature","id":113151,"properties":{"OBJECTID":113151,"PRIMENAME":"West Poplar Avenue","ELEVTYP_F":0,"ELEVTYP_T":0},"geometry":{"type":"LineString","coordinates":[[-74.8225572458335,39.0018432870571],[-74.8223141202745,39.0016964526678],[-74.8220490420457,39.0015273549959],[-74.8220093195324,39.0014977821213]]}},{"type":"Feature","id":113853,"properties":{"OBJECTID":113853,"PRIMENAME":"West Poplar Avenue","ELEVTYP_F":0,"ELEVTYP_T":0},"geometry":{"type":"LineString","coordinates":[[-74.8237220282208,39.002552440344],[-74.8235144825885,39.0024149282686],[-74.8231520059314,39.0021945360078],[-74.8231421617013,39.0021887968544]]}},{"type":"Feature","id":114353,"properties":{"OBJECTID":114353,"PRIMENAME":"Q Avenue","ELEVTYP_F":0,"ELEVTYP_T":0},"geometry":{"type":"LineString","coordinates":[[-74.8231356108836,38.9981572165766],[-74.8235079067784,38.997849090677],[-74.8236148569839,38.9977596095658]]}},{"type":"Feature","id":117269,"properties":{"OBJECTID":117269,"PRIMENAME":"West Pine Avenue","ELEVTYP_F":0,"ELEVTYP_T":0},"geometry":{"type":"LineString","coordinates":[[-74.8235720439969,38.9993998975629],[-74.8230627698369,38.9990234275557]]}},{"type":"Feature","id":118371,"properties":{"OBJECTID":118371,"PRIMENAME":"K Avenue","ELEVTYP_F":0,"ELEVTYP_T":0},"geometry":{"type":"LineString","coordinates":[[-74.8214909264643,39.0003208926604],[-74.8209786229459,39.0007450238781]]}},{"type":"Feature","id":118882,"properties":{"OBJECTID":118882,"PRIMENAME":"West Pine Avenue","ELEVTYP_F":0,"ELEVTYP_T":0},"geometry":{"type":"LineString","coordinates":[[-74.8266665999009,39.0016772361813],[-74.8261491749951,39.0012956127945]]}},{"type":"Feature","id":119150,"properties":{"OBJECTID":119150,"PRIMENAME":"Neptune Avenue","ELEVTYP_F":0,"ELEVTYP_T":0},"geometry":{"type":"LineString","coordinates":[[-74.8246150203312,39.0009590509262],[-74.8240849163098,39.0013967554725]]}},{"type":"Feature","id":121527,"properties":{"OBJECTID":121527,"PRIMENAME":"West Juniper Avenue","ELEVTYP_F":0,"ELEVTYP_T":0},"geometry":{"type":"LineString","coordinates":[[-74.8135369046793,38.9962403418529],[-74.8143231283057,38.9968053513939],[-74.8147863687647,38.9971304456081]]}},{"type":"Feature","id":128515,"properties":{"OBJECTID":128515,"PRIMENAME":"O Avenue","ELEVTYP_F":0,"ELEVTYP_T":0},"geometry":{"type":"LineString","coordinates":[[-74.8240846735564,38.9997778117885],[-74.8251754704722,38.9988573383424]]}},{"type":"Feature","id":132000,"properties":{"OBJECTID":132000,"PRIMENAME":"West Poplar Avenue","ELEVTYP_F":0,"ELEVTYP_T":0},"geometry":{"type":"LineString","coordinates":[[-74.8200916917165,39.0000931559642],[-74.8197911924645,38.9998776900829],[-74.8192180474188,38.9994576919097],[-74.8183094441257,38.9987838749829],[-74.8178376182207,38.9984333923219],[-74.8177686324145,38.9983873335297],[-74.817724572182,38.9983579151271],[-74.8177143197075,38.9983471516091],[-74.8177050051973,38.9983336676327],[-74.8176993037198,38.998310013886],[-74.8177009173523,38.9982851600902],[-74.8177081425889,38.9982721247491],[-74.8177163615848,38.9982608442849],[-74.8177705718065,38.998218246193],[-74.8178906554191,38.9981208817313],[-74.817995169751,38.9980356680778],[-74.8181074824506,38.997947412475],[-74.8181725790033,38.9978842457393]]}},{"type":"Feature","id":146474,"properties":{"OBJECTID":146474,"PRIMENAME":"West Glenwood Avenue","ELEVTYP_F":0,"ELEVTYP_T":0},"geometry":{"type":"LineString","coordinates":[[-74.8267756598033,39.0033769034487],[-74.8262371773359,39.0029797978875]]}},{"type":"Feature","id":150272,"properties":{"OBJECTID":150272,"PRIMENAME":"R Avenue","ELEVTYP_F":0,"ELEVTYP_T":0},"geometry":{"type":"LineString","coordinates":[[-74.8223096937379,38.9975407271567],[-74.8217172565804,38.9980347999951]]}},{"type":"Feature","id":152397,"properties":{"OBJECTID":152397,"PRIMENAME":"West Maple Avenue","ELEVTYP_F":0,"ELEVTYP_T":0},"geometry":{"type":"LineString","coordinates":[[-74.8192117524657,38.9969839306683],[-74.8197177213282,38.9973607294149],[-74.8200452821581,38.9976024535913],[-74.821480202455,38.998650877827],[-74.8216704666643,38.9987909123438]]}},{"type":"Feature","id":160453,"properties":{"OBJECTID":160453,"PRIMENAME":"West Glenwood Avenue","ELEVTYP_F":0,"ELEVTYP_T":0},"geometry":{"type":"LineString","coordinates":[[-74.8262371773359,39.0029797978875],[-74.8256667464356,39.0025591926158]]}},{"type":"Feature","id":161046,"properties":{"OBJECTID":161046,"PRIMENAME":"Glenwood Avenue","ELEVTYP_F":0,"ELEVTYP_T":0},"geometry":{"type":"LineString","coordinates":[[-74.8284588615515,39.0053999744329],[-74.8283538490945,39.0051257964087]]}},{"type":"Feature","id":161178,"properties":{"OBJECTID":161178,"PRIMENAME":"Hudson Avenue","ELEVTYP_F":0,"ELEVTYP_T":0},"geometry":{"type":"LineString","coordinates":[[-74.8158851968721,38.996185900888],[-74.816432347375,38.9957175711206]]}},{"type":"Feature","id":161489,"properties":{"OBJECTID":161489,"PRIMENAME":"J Avenue","ELEVTYP_F":0,"ELEVTYP_T":0},"geometry":{"type":"LineString","coordinates":[[-74.8230657157237,38.9998182279656],[-74.823531765862,38.9994335087353],[-74.8235720439969,38.9993998975629]]}},{"type":"Feature","id":162354,"properties":{"OBJECTID":162354,"PRIMENAME":"West Poplar Avenue","ELEVTYP_F":0,"ELEVTYP_T":0},"geometry":{"type":"LineString","coordinates":[[-74.8242544869167,39.0029367784652],[-74.8238107636659,39.002611229399],[-74.8237220282208,39.002552440344]]}},{"type":"Feature","id":162641,"properties":{"OBJECTID":162641,"PRIMENAME":"A Avenue","ELEVTYP_F":0,"ELEVTYP_T":0},"geometry":{"type":"LineString","coordinates":[[-74.826554756077,39.0044077313606],[-74.8271733751625,39.0044597067198],[-74.8281176257228,39.0045431368326]]}},{"type":"Feature","id":164785,"properties":{"OBJECTID":164785,"PRIMENAME":"West Maple Avenue","ELEVTYP_F":0,"ELEVTYP_T":0},"geometry":{"type":"LineString","coordinates":[[-74.8261603526618,39.0020976669185],[-74.8270256591499,39.0027357099282],[-74.82764962686,39.0031949303915]]}},{"type":"Feature","id":166722,"properties":{"OBJECTID":166722,"PRIMENAME":"West Glenwood Avenue","ELEVTYP_F":0,"ELEVTYP_T":0},"geometry":{"type":"LineString","coordinates":[[-74.823043620365,39.0006315229425],[-74.8225358653272,39.000257874325]]}},{"type":"Feature","id":169351,"properties":{"OBJECTID":169351,"PRIMENAME":"Hudson Avenue","ELEVTYP_F":0,"ELEVTYP_T":0},"geometry":{"type":"LineString","coordinates":[[-74.8153337715607,38.9966600330667],[-74.8155259637432,38.9964933627841],[-74.8158851968721,38.996185900888]]}},{"type":"Feature","id":169783,"properties":{"OBJECTID":169783,"PRIMENAME":"Lake Avenue","ELEVTYP_F":0,"ELEVTYP_T":0},"geometry":{"type":"LineString","coordinates":[[-74.8180339991003,38.9959954334734],[-74.8176928412219,38.9962903316688],[-74.8174874658661,38.9964661851528]]}},{"type":"Feature","id":174936,"properties":{"OBJECTID":174936,"PRIMENAME":"P Avenue","ELEVTYP_F":0,"ELEVTYP_T":0},"geometry":{"type":"LineString","coordinates":[[-74.8244384056052,38.9978695717699],[-74.8243467535454,38.9979465539759],[-74.8234896705507,38.9986664390959],[-74.8230627698369,38.9990234275557]]}},{"type":"Feature","id":175041,"properties":{"OBJECTID":175041,"PRIMENAME":"West Glenwood Avenue","ELEVTYP_F":0,"ELEVTYP_T":0},"geometry":{"type":"LineString","coordinates":[[-74.8246249142874,39.0017919714799],[-74.8245534850141,39.0017393958879],[-74.8240849163098,39.0013967554725]]}},{"type":"Feature","id":177511,"properties":{"OBJECTID":177511,"PRIMENAME":"West Magnolia Avenue","ELEVTYP_F":0,"ELEVTYP_T":0},"geometry":{"type":"LineString","coordinates":[[-74.8158851968721,38.996185900888],[-74.8160508520994,38.996303193311],[-74.816934682152,38.996941591569]]}},{"type":"Feature","id":177819,"properties":{"OBJECTID":177819,"PRIMENAME":"West Magnolia Avenue","ELEVTYP_F":0,"ELEVTYP_T":0},"geometry":{"type":"LineString","coordinates":[[-74.8206032622189,38.9996701828102],[-74.8201163994148,38.999313325808],[-74.8190995036718,38.9985663061906],[-74.8181725790033,38.9978842457393]]}},{"type":"Feature","id":178995,"properties":{"OBJECTID":178995,"PRIMENAME":"Bay Avenue","ELEVTYP_F":0,"ELEVTYP_T":0},"geometry":{"type":"LineString","coordinates":[[-74.8283538490945,39.0051257964087],[-74.8282726859217,39.0051310768363],[-74.8281871720929,39.0051313174135],[-74.8280121880894,39.0051136328178],[-74.8276155573091,39.0050783371248],[-74.8265889862573,39.0049871977396],[-74.8264334781332,39.0049724759435],[-74.826359605842,39.0049636217414],[-74.8263386836094,39.0049595615252],[-74.826324548337,39.0049545760555],[-74.8263094228055,39.0049484132249],[-74.8263017964771,39.0049428050696]]}},{"type":"Feature","id":179099,"properties":{"OBJECTID":179099,"PRIMENAME":"West Poplar Avenue","ELEVTYP_F":0,"ELEVTYP_T":0},"geometry":{"type":"LineString","coordinates":[[-74.8261409236268,39.0043729733615],[-74.8261234697339,39.0043273862936],[-74.82606876583,39.0042699038546],[-74.8258744263979,39.0041287619816]]}},{"type":"Feature","id":181255,"properties":{"OBJECTID":181255,"PRIMENAME":"S Avenue","ELEVTYP_F":0,"ELEVTYP_T":0},"geometry":{"type":"LineString","coordinates":[[-74.8223096937379,38.9975407271567],[-74.8224287795537,38.9976359526604],[-74.8230145237083,38.998063259455],[-74.8231356108836,38.9981572165766]]}},{"type":"Feature","id":182336,"properties":{"OBJECTID":182336,"PRIMENAME":"West Maple Avenue","ELEVTYP_F":0,"ELEVTYP_T":0},"geometry":{"type":"LineString","coordinates":[[-74.8216704666643,38.9987909123438],[-74.822735877042,38.9995754205401],[-74.8230657157237,38.9998182279656]]}},{"type":"Feature","id":184877,"properties":{"OBJECTID":184877,"PRIMENAME":"West Poplar Avenue","ELEVTYP_F":0,"ELEVTYP_T":0},"geometry":{"type":"LineString","coordinates":[[-74.8153337715607,38.9966600330667],[-74.8145759715129,38.9961265307616],[-74.8140945618559,38.9957810007271]]}},{"type":"Feature","id":189666,"properties":{"OBJECTID":189666,"PRIMENAME":"West Poplar Avenue","ELEVTYP_F":0,"ELEVTYP_T":0},"geometry":{"type":"LineString","coordinates":[[-74.8231421617013,39.0021887968544],[-74.8228168779177,39.0019983406755],[-74.8225791227061,39.0018564620419],[-74.8225572458335,39.0018432870571]]}},{"type":"Feature","id":190066,"properties":{"OBJECTID":190066,"PRIMENAME":"Hudson Avenue","ELEVTYP_F":0,"ELEVTYP_T":0},"geometry":{"type":"LineString","coordinates":[[-74.8143624758891,38.9974909355561],[-74.8147863687647,38.9971304456081]]}},{"type":"Feature","id":190295,"properties":{"OBJECTID":190295,"PRIMENAME":"West Poplar Avenue","ELEVTYP_F":0,"ELEVTYP_T":0},"geometry":{"type":"LineString","coordinates":[[-74.8163915709369,38.9974096937397],[-74.8159121280564,38.9970672415191],[-74.8153337715607,38.9966600330667]]}},{"type":"Feature","id":191180,"properties":{"OBJECTID":191180,"PRIMENAME":"West Poplar Avenue","ELEVTYP_F":0,"ELEVTYP_T":0},"geometry":{"type":"LineString","coordinates":[[-74.8209786229459,39.0007450238781],[-74.8202630534313,39.0002160561392],[-74.8200916917165,39.0000931559642]]}},{"type":"Feature","id":192627,"properties":{"OBJECTID":192627,"PRIMENAME":"A Avenue","ELEVTYP_F":0,"ELEVTYP_T":0},"geometry":{"type":"LineString","coordinates":[[-74.8261409236268,39.0043729733615],[-74.826554756077,39.0044077313606]]}},{"type":"Feature","id":194237,"properties":{"OBJECTID":194237,"PRIMENAME":"E Avenue","ELEVTYP_F":0,"ELEVTYP_T":0},"geometry":{"type":"LineString","coordinates":[[-74.8261603526618,39.0020976669185],[-74.8258675959299,39.002340887138],[-74.8257124584096,39.0024746857636],[-74.8256930611345,39.0024961020559],[-74.8256822580737,39.0025192519371],[-74.8256667464356,39.0025591926158]]}},{"type":"Feature","id":194771,"properties":{"OBJECTID":194771,"PRIMENAME":"West Pine Avenue","ELEVTYP_F":0,"ELEVTYP_T":0},"geometry":{"type":"LineString","coordinates":[[-74.8194350487,38.9958792739253],[-74.8193542369415,38.995874498051],[-74.8191419043541,38.9958634632928],[-74.8191008733387,38.9958548993011],[-74.8190973545401,38.9958538477077],[-74.8190524610575,38.9958404512213],[-74.8189180143127,38.99573914015],[-74.8186122217276,38.9955153390092]]}},{"type":"Feature","id":195945,"properties":{"OBJECTID":195945,"PRIMENAME":"West Maple Avenue","ELEVTYP_F":0,"ELEVTYP_T":0},"geometry":{"type":"LineString","coordinates":[[-74.8169805056472,38.9952480000378],[-74.8175529476273,38.9956550786939],[-74.8180339991003,38.9959954334734]]}},{"type":"Feature","id":198183,"properties":{"OBJECTID":198183,"PRIMENAME":"Lake Avenue","ELEVTYP_F":0,"ELEVTYP_T":0},"geometry":{"type":"LineString","coordinates":[[-74.816934682152,38.996941591569],[-74.8166714119511,38.9971712823806],[-74.8163915709369,38.9974096937397]]}},{"type":"Feature","id":199148,"properties":{"OBJECTID":199148,"PRIMENAME":"West Pine Avenue","ELEVTYP_F":0,"ELEVTYP_T":0},"geometry":{"type":"LineString","coordinates":[[-74.8271793686724,39.0020554109865],[-74.8270837758995,39.0019849099858],[-74.8266665999009,39.0016772361813]]}},{"type":"Feature","id":200936,"properties":{"OBJECTID":200936,"PRIMENAME":"Park Boulevard","ELEVTYP_F":0,"ELEVTYP_T":0},"geometry":{"type":"LineString","coordinates":[[-74.8140945618559,38.9957810007271],[-74.8138572677398,38.9959818111078],[-74.8135947817894,38.9961913379002],[-74.8135369046793,38.9962403418529]]}},{"type":"Feature","id":211336,"properties":{"OBJECTID":211336,"PRIMENAME":"R Avenue","ELEVTYP_F":0,"ELEVTYP_T":0},"geometry":{"type":"LineString","coordinates":[[-74.8227940832663,38.9971367383633],[-74.8223096937379,38.9975407271567]]}},{"type":"Feature","id":212189,"properties":{"OBJECTID":212189,"PRIMENAME":"West Pine Avenue","ELEVTYP_F":0,"ELEVTYP_T":0},"geometry":{"type":"LineString","coordinates":[[-74.8240846735564,38.9997778117885],[-74.8238525639538,38.9996072806849],[-74.8235720439969,38.9993998975629]]}},{"type":"Feature","id":213460,"properties":{"OBJECTID":213460,"PRIMENAME":"West Poplar Avenue","ELEVTYP_F":0,"ELEVTYP_T":0},"geometry":{"type":"LineString","coordinates":[[-74.8258744263979,39.0041287619816],[-74.8256319960882,39.0039526897665],[-74.8253295985652,39.0037295556838]]}},{"type":"Feature","id":213531,"properties":{"OBJECTID":213531,"PRIMENAME":"West Glenwood Avenue","ELEVTYP_F":0,"ELEVTYP_T":0},"geometry":{"type":"LineString","coordinates":[[-74.8273072901134,39.0037672160968],[-74.8270643593587,39.003589775341],[-74.8267756598033,39.0033769034487]]}},{"type":"Feature","id":218756,"properties":{"OBJECTID":218756,"PRIMENAME":"West Magnolia Avenue","ELEVTYP_F":0,"ELEVTYP_T":0},"geometry":{"type":"LineString","coordinates":[[-74.8146453563862,38.9953072057485],[-74.8147798789162,38.9954034686135],[-74.8158851968721,38.996185900888]]}},{"type":"Feature","id":220879,"properties":{"OBJECTID":220879,"PRIMENAME":"West Pine Avenue","ELEVTYP_F":0,"ELEVTYP_T":0},"geometry":{"type":"LineString","coordinates":[[-74.8217172565804,38.9980347999951],[-74.8209407798698,38.9974704451986],[-74.820855241545,38.9974008536667],[-74.8207825049251,38.9973378725419],[-74.8207060107426,38.9972529062284]]}},{"type":"Feature","id":223558,"properties":{"OBJECTID":223558,"PRIMENAME":"West Glenwood Avenue","ELEVTYP_F":0,"ELEVTYP_T":0},"geometry":{"type":"LineString","coordinates":[[-74.8225358653272,39.000257874325],[-74.8222726872195,39.0000642512825],[-74.8220222247744,38.9998810272342]]}},{"type":"Feature","id":232520,"properties":{"OBJECTID":232520,"PRIMENAME":"West Wildwood Avenue","ELEVTYP_F":0,"ELEVTYP_T":0},"geometry":{"type":"LineString","coordinates":[[-74.8198884579406,38.9954861453988],[-74.8205028441873,38.9959127549739]]}},{"type":"Feature","id":233746,"properties":{"OBJECTID":233746,"PRIMENAME":"Q Avenue","ELEVTYP_F":0,"ELEVTYP_T":0},"geometry":{"type":"LineString","coordinates":[[-74.8225484159193,38.9986432064327],[-74.8231356108836,38.9981572165766]]}},{"type":"Feature","id":233933,"properties":{"OBJECTID":233933,"PRIMENAME":"West Pine Avenue","ELEVTYP_F":0,"ELEVTYP_T":0},"geometry":{"type":"LineString","coordinates":[[-74.8230627698369,38.9990234275557],[-74.8225484159193,38.9986432064327]]}},{"type":"Feature","id":234607,"properties":{"OBJECTID":234607,"PRIMENAME":"K Avenue","ELEVTYP_F":0,"ELEVTYP_T":0},"geometry":{"type":"LineString","coordinates":[[-74.8220222247744,38.9998810272342],[-74.8214909264643,39.0003208926604]]}},{"type":"Feature","id":241839,"properties":{"OBJECTID":241839,"PRIMENAME":"West 26th Avenue","ELEVTYP_F":0,"ELEVTYP_T":0},"geometry":{"type":"LineString","coordinates":[[-74.8154038767931,38.9982480624567],[-74.8143624758891,38.9974909355561]]}},{"type":"Feature","id":246290,"properties":{"OBJECTID":246290,"PRIMENAME":"E Avenue","ELEVTYP_F":0,"ELEVTYP_T":0},"geometry":{"type":"LineString","coordinates":[[-74.8266665999009,39.0016772361813],[-74.8261603526618,39.0020976669185]]}},{"type":"Feature","id":253928,"properties":{"OBJECTID":253928,"PRIMENAME":"Neptune Avenue","ELEVTYP_F":0,"ELEVTYP_T":0},"geometry":{"type":"LineString","coordinates":[[-74.8231421617013,39.0021887968544],[-74.8228860686718,39.0024258128196]]}},{"type":"Feature","id":255893,"properties":{"OBJECTID":255893,"PRIMENAME":"West Poplar Avenue","ELEVTYP_F":0,"ELEVTYP_T":0},"geometry":{"type":"LineString","coordinates":[[-74.8215001690224,39.0011269336856],[-74.8213666524628,39.0010318560511],[-74.8209786229459,39.0007450238781]]}},{"type":"Feature","id":257693,"properties":{"OBJECTID":257693,"PRIMENAME":"West Magnolia Avenue","ELEVTYP_F":0,"ELEVTYP_T":0},"geometry":{"type":"LineString","coordinates":[[-74.8214909264643,39.0003208926604],[-74.8206032622189,38.9996701828102]]}},{"type":"Feature","id":258431,"properties":{"OBJECTID":258431,"PRIMENAME":"West 26th Avenue","ELEVTYP_F":0,"ELEVTYP_T":0},"geometry":{"type":"LineString","coordinates":[[-74.8143624758891,38.9974909355561],[-74.814156809225,38.9973414291343],[-74.8132655778103,38.9966796081778],[-74.8131073474803,38.9965776137599]]}},{"type":"Feature","id":259445,"properties":{"OBJECTID":259445,"PRIMENAME":"Lake Road","ELEVTYP_F":0,"ELEVTYP_T":0},"geometry":{"type":"LineString","coordinates":[[-74.8192117524657,38.9969839306683],[-74.8193063575969,38.996972771361],[-74.8194257418999,38.9969791163769],[-74.8198053687781,38.9970545759477],[-74.8205902543983,38.9972319991134],[-74.8207060107426,38.9972529062284]]}},{"type":"Feature","id":261230,"properties":{"OBJECTID":261230,"PRIMENAME":"Q Avenue","ELEVTYP_F":0,"ELEVTYP_T":0},"geometry":{"type":"LineString","coordinates":[[-74.8236148569839,38.9977596095658],[-74.8239026529608,38.9975187967836]]}},{"type":"Feature","id":268422,"properties":{"OBJECTID":268422,"PRIMENAME":"West Glenwood Avenue","ELEVTYP_F":0,"ELEVTYP_T":0},"geometry":{"type":"LineString","coordinates":[[-74.823559712798,39.0010112423331],[-74.823043620365,39.0006315229425]]}},{"type":"Feature","id":268958,"properties":{"OBJECTID":268958,"PRIMENAME":"West Poplar Avenue","ELEVTYP_F":0,"ELEVTYP_T":0},"geometry":{"type":"LineString","coordinates":[[-74.8247934152316,39.0033338919561],[-74.8243996061859,39.0030432704492],[-74.8242544869167,39.0029367784652]]}},{"type":"Feature","id":269348,"properties":{"OBJECTID":269348,"PRIMENAME":"West Glenwood Avenue","ELEVTYP_F":0,"ELEVTYP_T":0},"geometry":{"type":"LineString","coordinates":[[-74.8240849163098,39.0013967554725],[-74.8238933379502,39.0012567006943],[-74.823559712798,39.0010112423331]]}},{"type":"Feature","id":271458,"properties":{"OBJECTID":271458,"PRIMENAME":"West Glenwood Avenue","ELEVTYP_F":0,"ELEVTYP_T":0},"geometry":{"type":"LineString","coordinates":[[-74.8174874658661,38.9964661851528],[-74.8174377756844,38.9964334253334],[-74.816432347375,38.9957175711206]]}},{"type":"Feature","id":273398,"properties":{"OBJECTID":273398,"PRIMENAME":"N Avenue","ELEVTYP_F":0,"ELEVTYP_T":0},"geometry":{"type":"LineString","coordinates":[[-74.8245968801559,39.0001541871338],[-74.8255862049168,38.9993134842805]]}},{"type":"Feature","id":283665,"properties":{"OBJECTID":283665,"PRIMENAME":"Lake Avenue","ELEVTYP_F":0,"ELEVTYP_T":0},"geometry":{"type":"LineString","coordinates":[[-74.8158425346634,38.9978764626042],[-74.8154038767931,38.9982480624567]]}},{"type":"Feature","id":288476,"properties":{"OBJECTID":288476,"PRIMENAME":"Arion Avenue","ELEVTYP_F":0,"ELEVTYP_T":0},"geometry":{"type":"LineString","coordinates":[[-74.8211355216824,38.9992323510771],[-74.8206032622189,38.9996701828102]]}},{"type":"Feature","id":289551,"properties":{"OBJECTID":289551,"PRIMENAME":"L Avenue","ELEVTYP_F":0,"ELEVTYP_T":0},"geometry":{"type":"LineString","coordinates":[[-74.8261491749951,39.0012956127945],[-74.8266422519067,39.0009050933254]]}},{"type":"Feature","id":294369,"properties":{"OBJECTID":294369,"PRIMENAME":"West 26th Avenue","ELEVTYP_F":0,"ELEVTYP_T":0},"geometry":{"type":"LineString","coordinates":[[-74.8131073474803,38.9965776137599],[-74.8129883841884,38.9964810216755],[-74.8128429894169,38.9963629661045],[-74.8124906853056,38.9961127206737],[-74.8115702650504,38.9954318808633]]}},{"type":"Feature","id":295156,"properties":{"OBJECTID":295156,"PRIMENAME":"Poplar Avenue","ELEVTYP_F":0,"ELEVTYP_T":0},"geometry":{"type":"LineString","coordinates":[[-74.8165884045928,38.9975502683052],[-74.8163915709369,38.9974096937397]]}},{"type":"Feature","id":295905,"properties":{"OBJECTID":295905,"PRIMENAME":"Venice Avenue","ELEVTYP_F":0,"ELEVTYP_T":0},"geometry":{"type":"LineString","coordinates":[[-74.818571561671,38.9973394817316],[-74.8186985813548,38.9971572776304],[-74.8188221567329,38.9969840896267],[-74.8188530314652,38.9969324389536],[-74.8188705725986,38.9969081145579],[-74.8188751319732,38.9969017897497],[-74.8188993820419,38.9968716562662],[-74.8189130365891,38.9968564348977],[-74.8189354607632,38.9968428642608],[-74.8189640342272,38.996835372049],[-74.8189717746721,38.9968353508885]]}},{"type":"Feature","id":297113,"properties":{"OBJECTID":297113,"PRIMENAME":"Hudson Avenue","ELEVTYP_F":0,"ELEVTYP_T":0},"geometry":{"type":"LineString","coordinates":[[-74.816432347375,38.9957175711206],[-74.8166068772507,38.9955681903619],[-74.8169805056472,38.9952480000378]]}},{"type":"Feature","id":299261,"properties":{"OBJECTID":299261,"PRIMENAME":"Neptune Avenue","ELEVTYP_F":0,"ELEVTYP_T":0},"geometry":{"type":"LineString","coordinates":[[-74.8251218019539,39.0005398613048],[-74.8248602799062,39.0007566039543],[-74.8246150203312,39.0009590509262]]}},{"type":"Feature","id":299534,"properties":{"OBJECTID":299534,"PRIMENAME":"Mueller Avenue","ELEVTYP_F":0,"ELEVTYP_T":0},"geometry":{"type":"LineString","coordinates":[[-74.8236148569839,38.9977596095658],[-74.8227940832663,38.9971367383633]]}},{"type":"Feature","id":304285,"properties":{"OBJECTID":304285,"PRIMENAME":"West Pine Avenue","ELEVTYP_F":0,"ELEVTYP_T":0},"geometry":{"type":"LineString","coordinates":[[-74.8256494483605,39.0009275569202],[-74.8251218019539,39.0005398613048]]}},{"type":"Feature","id":304658,"properties":{"OBJECTID":304658,"PRIMENAME":"West Juniper Avenue","ELEVTYP_F":0,"ELEVTYP_T":0},"geometry":{"type":"LineString","coordinates":[[-74.8158425346634,38.9978764626042],[-74.8160341426789,38.9980207592899]]}},{"type":"Feature","id":307233,"properties":{"OBJECTID":307233,"PRIMENAME":"Delaware Avenue","ELEVTYP_F":0,"ELEVTYP_T":0},"geometry":{"type":"LineString","coordinates":[[-74.8131073474803,38.9965776137599],[-74.8129012066102,38.996654500508],[-74.8127899766388,38.9967099072536],[-74.8126825336432,38.9967943007295],[-74.8124529480503,38.9969892382669],[-74.8123880154912,38.9970426270227]]}},{"type":"Feature","id":307280,"properties":{"OBJECTID":307280,"PRIMENAME":"West Juniper Avenue","ELEVTYP_F":0,"ELEVTYP_T":0},"geometry":{"type":"LineString","coordinates":[[-74.8147863687647,38.9971304456081],[-74.8157448428568,38.9978028913824],[-74.8158425346634,38.9978764626042]]}},{"type":"Feature","id":308316,"properties":{"OBJECTID":308316,"PRIMENAME":"West Pine Avenue","ELEVTYP_F":0,"ELEVTYP_T":0},"geometry":{"type":"LineString","coordinates":[[-74.8221782001165,38.9983716507472],[-74.8219070531069,38.9981727769606],[-74.8217172565804,38.9980347999951]]}},{"type":"Feature","id":308816,"properties":{"OBJECTID":308816,"PRIMENAME":"I Avenue","ELEVTYP_F":0,"ELEVTYP_T":0},"geometry":{"type":"LineString","coordinates":[[-74.823043620365,39.0006315229425],[-74.8220093195324,39.0014977821213]]}},{"type":"Feature","id":312196,"properties":{"OBJECTID":312196,"PRIMENAME":"Neptune Avenue","ELEVTYP_F":0,"ELEVTYP_T":0},"geometry":{"type":"LineString","coordinates":[[-74.8262007874523,38.999645716494],[-74.8251218019539,39.0005398613048]]}},{"type":"Feature","id":312983,"properties":{"OBJECTID":312983,"PRIMENAME":"West Glenwood Avenue","ELEVTYP_F":0,"ELEVTYP_T":0},"geometry":{"type":"LineString","coordinates":[[-74.818571561671,38.9973394817316],[-74.8184418917381,38.9972367841829],[-74.8183224361168,38.9971347216564],[-74.8182684205673,38.9970885709556],[-74.8180218311916,38.9968813250346]]}},{"type":"Feature","id":316083,"properties":{"OBJECTID":316083,"PRIMENAME":"Lake Avenue","ELEVTYP_F":0,"ELEVTYP_T":0},"geometry":{"type":"LineString","coordinates":[[-74.8174874658661,38.9964661851528],[-74.8170668951495,38.9968262642075],[-74.816934682152,38.996941591569]]}},{"type":"Feature","id":316678,"properties":{"OBJECTID":316678,"PRIMENAME":"West Glenwood Avenue","ELEVTYP_F":0,"ELEVTYP_T":0},"geometry":{"type":"LineString","coordinates":[[-74.8220222247744,38.9998810272342],[-74.8211355216824,38.9992323510771]]}},{"type":"Feature","id":317483,"properties":{"OBJECTID":317483,"PRIMENAME":"R Avenue","ELEVTYP_F":0,"ELEVTYP_T":0},"geometry":{"type":"LineString","coordinates":[[-74.8231029159404,38.9968792024601],[-74.8227940832663,38.9971367383633]]}},{"type":"Feature","id":318984,"properties":{"OBJECTID":318984,"PRIMENAME":"Susquehanna Avenue","ELEVTYP_F":0,"ELEVTYP_T":0},"geometry":{"type":"LineString","coordinates":[[-74.8198884579406,38.9954861453988],[-74.8194350487,38.9958792739253]]}},{"type":"Feature","id":325405,"properties":{"OBJECTID":325405,"PRIMENAME":"North Avenue","ELEVTYP_F":0,"ELEVTYP_T":0},"geometry":{"type":"LineString","coordinates":[[-74.8251754704722,38.9988573383424],[-74.8252019179497,38.9988201752132],[-74.824926461744,38.9984958960711]]}},{"type":"Feature","id":329755,"properties":{"OBJECTID":329755,"PRIMENAME":"West Poplar Avenue","ELEVTYP_F":0,"ELEVTYP_T":0},"geometry":{"type":"LineString","coordinates":[[-74.8220093195324,39.0014977821213],[-74.8217526604091,39.0013067767835],[-74.8215001690224,39.0011269336856]]}},{"type":"Feature","id":329783,"properties":{"OBJECTID":329783,"PRIMENAME":"Arion Avenue","ELEVTYP_F":0,"ELEVTYP_T":0},"geometry":{"type":"LineString","coordinates":[[-74.8200916917165,39.0000931559642],[-74.819822817983,39.0003211935335]]}},{"type":"Feature","id":329872,"properties":{"OBJECTID":329872,"PRIMENAME":"Magnolia Avenue","ELEVTYP_F":0,"ELEVTYP_T":0},"geometry":{"type":"LineString","coordinates":[[-74.816934682152,38.996941591569],[-74.8171915698379,38.997127144235]]}},{"type":"Feature","id":334275,"properties":{"OBJECTID":334275,"PRIMENAME":"West Pine Avenue","ELEVTYP_F":0,"ELEVTYP_T":0},"geometry":{"type":"LineString","coordinates":[[-74.8251218019539,39.0005398613048],[-74.8245968801559,39.0001541871338]]}},{"type":"Feature","id":336706,"properties":{"OBJECTID":336706,"PRIMENAME":"West Maple Avenue","ELEVTYP_F":0,"ELEVTYP_T":0},"geometry":{"type":"LineString","coordinates":[[-74.8230657157237,38.9998182279656],[-74.8241475746145,39.0006147599077],[-74.8246150203312,39.0009590509262]]}},{"type":"Feature","id":337619,"properties":{"OBJECTID":337619,"PRIMENAME":"West Maple Avenue","ELEVTYP_F":0,"ELEVTYP_T":0},"geometry":{"type":"LineString","coordinates":[[-74.8189717746721,38.9968353508885],[-74.8189951749434,38.9968352869146],[-74.8190150856897,38.9968419871485],[-74.8190350085225,38.9968513782239],[-74.8190764773352,38.9968827526943],[-74.8191172048204,38.9969135661379],[-74.8192117524657,38.9969839306683]]}},{"type":"Feature","id":341206,"properties":{"OBJECTID":341206,"PRIMENAME":"B Avenue","ELEVTYP_F":0,"ELEVTYP_T":0},"geometry":{"type":"LineString","coordinates":[[-74.8273072901134,39.0037672160968],[-74.826554756077,39.0044077313606]]}},{"type":"Feature","id":346539,"properties":{"OBJECTID":346539,"PRIMENAME":"West Glenwood Avenue","ELEVTYP_F":0,"ELEVTYP_T":0},"geometry":{"type":"LineString","coordinates":[[-74.8281176257228,39.0045431368326],[-74.8280251897018,39.0043398479458],[-74.8280028068954,39.0042937534194],[-74.8279655944908,39.004244817818],[-74.8278432240662,39.0041586402719],[-74.8276555690124,39.0040215860103],[-74.8273072901134,39.0037672160968]]}},{"type":"Feature","id":402148,"properties":{"OBJECTID":402148,"PRIMENAME":"Poplar Avenue","ELEVTYP_F":0,"ELEVTYP_T":0},"geometry":{"type":"LineString","coordinates":[[-74.8263017964771,39.0049428050696],[-74.8262972761228,39.004939495334],[-74.8262859884061,39.004926044606],[-74.8262777251547,39.0049122286775],[-74.8262578819753,39.0048213421783],[-74.8261786554488,39.0044970615868],[-74.8261431315501,39.0043788426101],[-74.8261409236268,39.0043729733615]]}}]}
