{"type":"Feature","properties":{"MUN":"WEST WILDWOOD BORO","COUNTY":"CAPE MAY","MUN_LABEL":"West Wildwood Borough","MUN_TYPE":"Borough","NAME":"West Wildwood Borough","GNIS_NAME":"Borough of West Wildwood"},"geometry":{"type":"Polygon","coordinates":[[[-74.8189037,39.002351],[-74.8185879,39.0020953],[-74.8184637,39.0019258],[-74.8183006,39.0017791],[-74.8181278,39.0016528],[-74.8179241,39.0015215],[-74.8177613,39.0014611],[-74.8175791,39.0014008],[-74.8174034,39.0013607],[-74.8173026,39.0013508],[-74.8172149,39.0013511],[-74.8171208,39.0013843],[-74.817017,39.0014277],[-74.8169749,39.0014658],[-74.8169036,39.0015066],[-74.8167769,39.001517],[-74.8166518,39.0015149],[-74.81646,39.0014951],[-74.8163852,39.0014826],[-74.8162453,39.0014348],[-74.8161314,39.0014022],[-74.8159493,39.0013824],[-74.8156764,39.0013857],[-74.8154457,39.0014066],[-74.8153272,39.0014208],[-74.8152169,39.0014541],[-74.8150986,39.0015254],[-74.8150257,39.0015788],[-74.8149546,39.0016729],[-74.8148584,39.0017821],[-74.8147922,39.0018584],[-74.8147194,39.0019359],[-74.8146092,39.0019958],[-74.8145005,39.0020405],[-74.8143447,39.0020827],[-74.8141735,39.0021289],[-74.8139998,39.0021635],[-74.813852,39.0021804],[-74.8137773,39.0021895],[-74.8136912,39.0021973],[-74.8135954,39.0022141],[-74.8134671,39.0022258],[-74.8133924,39.0022222],[-74.8132997,39.0022085],[-74.8132021,39.0021834],[-74.8131289,39.0021608],[-74.8130573,39.0021242],[-74.8130197,39.0020914],[-74.8130138,39.002082],[-74.8129804,39.0020293],[-74.8129656,39.0019724],[-74.812967,39.0019254],[-74.8129685,39.0018912],[-74.8129813,39.0018468],[-74.813007,39.001796],[-74.8130313,39.001763],[-74.813075,39.001721],[-74.8131236,39.0016841],[-74.8131721,39.0016485],[-74.8131854,39.001637],[-74.813232,39.0015964],[-74.8132741,39.0015481],[-74.8132991,39.0015176],[-74.8133394,39.0014376],[-74.8133635,39.0013754],[-74.8133762,39.0013132],[-74.8133841,39.0012549],[-74.8133806,39.0011991],[-74.8133755,39.001151],[-74.8133574,39.0010965],[-74.8133418,39.0010668],[-74.8133206,39.0010414],[-74.8132944,39.0010098],[-74.813256,39.0009523],[-74.8132338,39.0008877],[-74.8132307,39.0008293],[-74.8132313,39.0007831],[-74.8132351,39.0007355],[-74.8132447,39.0006841],[-74.8132659,39.0006239],[-74.813286,39.0005826],[-74.8133094,39.0005382],[-74.8133361,39.0005089],[-74.8133693,39.0004797],[-74.8134114,39.0004517],[-74.8135285,39.0003892],[-74.8135633,39.0003689],[-74.8136379,39.0003402],[-74.8136972,39.0003242],[-74.8137378,39.000317],[-74.813806,39.0003112],[-74.8138775,39.0003065],[-74.813931,39.0002981],[-74.8139529,39.0002892],[-74.8140269,39.0002992],[-74.8140773,39.0003111],[-74.8141204,39.0003217],[-74.8141583,39.0003419],[-74.8141982,39.0003703],[-74.8142528,39.0004031],[-74.814287,39.0004189],[-74.814326,39.0004264],[-74.8143878,39.0004364],[-74.8144268,39.0004407],[-74.8144817,39.0004577],[-74.8145264,39.000469],[-74.8145752,39.0004752],[-74.8146499,39.000475],[-74.8147279,39.0004671],[-74.8148152,39.0004536],[-74.8148817,39.0004408],[-74.8149369,39.0004267],[-74.8149823,39.0004126],[-74.815031,39.0003941],[-74.8150699,39.0003724],[-74.8151063,39.0003476],[-74.8151262,39.0003336],[-74.8151594,39.000317],[-74.8152008,39.0003011],[-74.815243,39.0002883],[-74.8152592,39.0002775],[-74.8152762,39.0002628],[-74.8152915,39.0002387],[-74.8153206,39.0002069],[-74.8153594,39.0001694],[-74.8153999,39.0001427],[-74.8154534,39.0000944],[-74.815556,39.0000087],[-74.8155769,38.9999856],[-74.8155962,38.9999603],[-74.8156048,38.9999409],[-74.815609,38.9999232],[-74.8156122,38.9999106],[-74.8156294,38.9998937],[-74.8156519,38.9998836],[-74.8156735,38.9998751],[-74.815695,38.9998675],[-74.8157187,38.9998497],[-74.8157401,38.9998295],[-74.815767,38.9998126],[-74.8157874,38.9997915],[-74.8158046,38.9997687],[-74.8158948,38.999691],[-74.8166238,38.9991044],[-74.8164778,38.998997],[-74.8170592,38.9985166],[-74.8170807,38.9976823],[-74.8185906,38.9963972],[-74.8210354,38.9966308],[-74.821421,38.9969121],[-74.822869,38.9956573],[-74.824456,38.9967607],[-74.8257591,38.9958776],[-74.8258052,38.9959254],[-74.8308579,39.0011774],[-74.8306629,39.0032938],[-74.8294263,39.0040251],[-74.8297857,39.0059041],[-74.8291621,39.0060503],[-74.8296072,39.0071037],[-74.8295044,39.0071436],[-74.8294526,39.0071522],[-74.8293875,39.007174],[-74.8292733,39.0071896],[-74.8289875,39.007075],[-74.8284325,39.0056397],[-74.8258011,39.0053961],[-74.8248952,39.0050747],[-74.8227446,39.0034706],[-74.8212783,39.0026029],[-74.820683,39.0024279],[-74.820418,39.0023135],[-74.8203043,39.0022335],[-74.820228,39.0020703],[-74.8200724,39.0018405],[-74.81989,39.0017767],[-74.8197868,39.0017697],[-74.8196343,39.0018041],[-74.8193665,39.0020144],[-74.8190478,39.0022475],[-74.8189037,39.002351]]]}}
